{"type": "FeatureCollection", "features": [{"type": "Feature", "geometry": {"type": "Point", "coordinates": [151.25, -23.84]}, "properties": {"name": "Gladstone"}}, {"type": "Feature", "geometry": {"type": "Point", "coordinates": [86.97, 20.8]}, "properties": {"name": "Dhamra"}}, {"type": "Feature", "geometry": {"type": "Point", "coordinates": [86.67, 20.26]}, "properties": {"name": "Paradip"}}, {"type": "Feature", "geometry": {"type": "Point", "coordinates": [88.06, 22.02]}, "properties": {"name": "Haldia"}}]}